{
  "type": "FeatureCollection",
  "features": [
    {
      "type": "Feature",
      "properties": {
        "norad_id": 40362,
        "name": "YAOGAN-26",
        "group": "resource",
        "lat": 45.443811512314376,
        "lon": 178.74233820443538,
        "alt_km": 445.67492576118,
        "timestamp": "2025-12-16T23:36:35.842090+00:00",
        "meta_object_name": "YAOGAN-26",
        "meta_object_id": "2014-088A",
        "meta_epoch": "2025-12-16T05:52:10.856640",
        "meta_mean_motion": 15.39426625,
        "meta_eccentricity": 0.00057576,
        "meta_inclination": 97.0639,
        "meta_ra_of_asc_node": 350.7942,
        "meta_arg_of_pericenter": 19.8864,
        "meta_mean_anomaly": 340.2605,
        "meta_ephemeris_type": 0,
        "meta_classification_type": "U",
        "meta_norad_cat_id": 40362,
        "meta_element_set_no": 999,
        "meta_rev_at_epoch": 60948,
        "meta_bstar": 0.00037665934,
        "meta_mean_motion_dot": 0.00014687,
        "meta_mean_motion_ddot": 0,
        "tle_line1": "1 40362U 14088A   25350.24457010  .00014687  00000+0  37666-3 0  9990",
        "tle_line2": "2 40362  97.0639 350.7942 0005757  19.8864 340.2605 15.39426625609481"
      },
      "geometry": {
        "type": "Point",
        "coordinates": [
          178.74233820443538,
          45.443811512314376
        ]
      }
    },
    {
      "type": "Feature",
      "properties": {
        "norad_id": 40376,
        "name": "SMAP",
        "group": "resource",
        "lat": -56.042043202681036,
        "lon": 7.900200388009102,
        "alt_km": 690.1406145056717,
        "timestamp": "2025-12-16T23:36:35.842101+00:00",
        "meta_object_name": "SMAP",
        "meta_object_id": "2015-003A",
        "meta_epoch": "2025-12-16T07:27:32.947200",
        "meta_mean_motion": 14.63349671,
        "meta_eccentricity": 0.00012125,
        "meta_inclination": 98.129,
        "meta_ra_of_asc_node": 354.9832,
        "meta_arg_of_pericenter": 90.9327,
        "meta_mean_anomaly": 269.2014,
        "meta_ephemeris_type": 0,
        "meta_classification_type": "U",
        "meta_norad_cat_id": 40376,
        "meta_element_set_no": 999,
        "meta_rev_at_epoch": 58087,
        "meta_bstar": 0.00011481862,
        "meta_mean_motion_dot": 5.46e-06,
        "meta_mean_motion_ddot": 0,
        "tle_line1": "1 40376U 15003A   25350.31079800  .00000546  00000+0  11482-3 0  9995",
        "tle_line2": "2 40376  98.1290 354.9832 0001212  90.9327 269.2014 14.63349671580877"
      },
      "geometry": {
        "type": "Point",
        "coordinates": [
          7.900200388009102,
          -56.042043202681036
        ]
      }
    },
    {
      "type": "Feature",
      "properties": {
        "norad_id": 40536,
        "name": "KOMPSAT-3A",
        "group": "resource",
        "lat": 33.94477318226036,
        "lon": 150.77559475243086,
        "alt_km": 428.8812406757079,
        "timestamp": "2025-12-16T23:36:35.842111+00:00",
        "meta_object_name": "KOMPSAT-3A",
        "meta_object_id": "2015-014A",
        "meta_epoch": "2025-12-16T08:59:01.896000",
        "meta_mean_motion": 15.44079073,
        "meta_eccentricity": 0.00051818,
        "meta_inclination": 97.6783,
        "meta_ra_of_asc_node": 324.922,
        "meta_arg_of_pericenter": 118.522,
        "meta_mean_anomaly": 241.655,
        "meta_ephemeris_type": 0,
        "meta_classification_type": "U",
        "meta_norad_cat_id": 40536,
        "meta_element_set_no": 999,
        "meta_rev_at_epoch": 59351,
        "meta_bstar": 0.00033169248,
        "meta_mean_motion_dot": 0.00015081,
        "meta_mean_motion_ddot": 0,
        "tle_line1": "1 40536U 15014A   25350.37432750  .00015081  00000+0  33169-3 0  9994",
        "tle_line2": "2 40536  97.6783 324.9220 0005181 118.5220 241.6550 15.44079073593512"
      },
      "geometry": {
        "type": "Point",
        "coordinates": [
          150.77559475243086,
          33.94477318226036
        ]
      }
    },
    {
      "type": "Feature",
      "properties": {
        "norad_id": 40697,
        "name": "SENTINEL-2A",
        "group": "resource",
        "lat": 34.72678694316857,
        "lon": 57.45652166226341,
        "alt_km": 786.2190786443925,
        "timestamp": "2025-12-16T23:36:35.842122+00:00",
        "meta_object_name": "SENTINEL-2A",
        "meta_object_id": "2015-028A",
        "meta_epoch": "2025-12-16T08:20:28.212000",
        "meta_mean_motion": 14.30814406,
        "meta_eccentricity": 0.00010495,
        "meta_inclination": 98.569,
        "meta_ra_of_asc_node": 62.8284,
        "meta_arg_of_pericenter": 88.7162,
        "meta_mean_anomaly": 271.4141,
        "meta_ephemeris_type": 0,
        "meta_classification_type": "U",
        "meta_norad_cat_id": 40697,
        "meta_element_set_no": 999,
        "meta_rev_at_epoch": 54758,
        "meta_bstar": 1.5898545e-05,
        "meta_mean_motion_dot": -2e-08,
        "meta_mean_motion_ddot": 0,
        "tle_line1": "1 40697U 15028A   25350.34754875 -.00000002  00000+0  15899-4 0  9998",
        "tle_line2": "2 40697  98.5690  62.8284 0001049  88.7162 271.4141 14.30814406547581"
      },
      "geometry": {
        "type": "Point",
        "coordinates": [
          57.45652166226341,
          34.72678694316857
        ]
      }
    },
    {
      "type": "Feature",
      "properties": {
        "norad_id": 40701,
        "name": "GAOFEN-8",
        "group": "resource",
        "lat": -71.8157894266906,
        "lon": -166.37735154616112,
        "alt_km": 465.0159569027528,
        "timestamp": "2025-12-16T23:36:35.842132+00:00",
        "meta_object_name": "GAOFEN-8",
        "meta_object_id": "2015-030A",
        "meta_epoch": "2025-12-16T08:19:17.768352",
        "meta_mean_motion": 15.38665586,
        "meta_eccentricity": 0.00117968,
        "meta_inclination": 97.6907,
        "meta_ra_of_asc_node": 168.6619,
        "meta_arg_of_pericenter": 126.1233,
        "meta_mean_anomaly": 234.1105,
        "meta_ephemeris_type": 0,
        "meta_classification_type": "U",
        "meta_norad_cat_id": 40701,
        "meta_element_set_no": 999,
        "meta_rev_at_epoch": 58326,
        "meta_bstar": 0.00028875659,
        "meta_mean_motion_dot": 0.00010969,
        "meta_mean_motion_ddot": 0,
        "tle_line1": "1 40701U 15030A   25350.34673343  .00010969  00000+0  28876-3 0  9997",
        "tle_line2": "2 40701  97.6907 168.6619 0011796 126.1233 234.1105 15.38665586583264"
      },
      "geometry": {
        "type": "Point",
        "coordinates": [
          -166.37735154616112,
          -71.8157894266906
        ]
      }
    },
    {
      "type": "Feature",
      "properties": {
        "norad_id": 40718,
        "name": "CARBONITE 1 (CBNT-1)",
        "group": "resource",
        "lat": 81.09703186851631,
        "lon": 112.87062017401901,
        "alt_km": 611.7277171938395,
        "timestamp": "2025-12-16T23:36:35.842142+00:00",
        "meta_object_name": "CARBONITE 1 (CBNT-1)",
        "meta_object_id": "2015-032D",
        "meta_epoch": "2025-12-16T08:38:56.990112",
        "meta_mean_motion": 14.82760365,
        "meta_eccentricity": 0.00146526,
        "meta_inclination": 97.6401,
        "meta_ra_of_asc_node": 171.2445,
        "meta_arg_of_pericenter": 169.3198,
        "meta_mean_anomaly": 190.833,
        "meta_ephemeris_type": 0,
        "meta_classification_type": "U",
        "meta_norad_cat_id": 40718,
        "meta_element_set_no": 999,
        "meta_rev_at_epoch": 56224,
        "meta_bstar": 6.1790231e-05,
        "meta_mean_motion_dot": 4.5e-06,
        "meta_mean_motion_ddot": 0,
        "tle_line1": "1 40718U 15032D   25350.36038183  .00000450  00000+0  61790-4 0  9993",
        "tle_line2": "2 40718  97.6401 171.2445 0014652 169.3198 190.8330 14.82760365562243"
      },
      "geometry": {
        "type": "Point",
        "coordinates": [
          112.87062017401901,
          81.09703186851631
        ]
      }
    },
    {
      "type": "Feature",
      "properties": {
        "norad_id": 40878,
        "name": "YAOGAN-27",
        "group": "resource",
        "lat": 57.394933070929454,
        "lon": 176.5922047151092,
        "alt_km": 1199.4115171090125,
        "timestamp": "2025-12-16T23:36:35.842153+00:00",
        "meta_object_name": "YAOGAN-27",
        "meta_object_id": "2015-040A",
        "meta_epoch": "2025-12-16T08:23:59.978400",
        "meta_mean_motion": 13.16060392,
        "meta_eccentricity": 0.00076093,
        "meta_inclination": 100.1009,
        "meta_ra_of_asc_node": 339.8069,
        "meta_arg_of_pericenter": 277.9781,
        "meta_mean_anomaly": 82.0469,
        "meta_ephemeris_type": 0,
        "meta_classification_type": "U",
        "meta_norad_cat_id": 40878,
        "meta_element_set_no": 999,
        "meta_rev_at_epoch": 49361,
        "meta_bstar": 0.00061124144,
        "meta_mean_motion_dot": 1.9e-06,
        "meta_mean_motion_ddot": 0,
        "tle_line1": "1 40878U 15040A   25350.34999975  .00000190  00000+0  61124-3 0  9993",
        "tle_line2": "2 40878 100.1009 339.8069 0007609 277.9781  82.0469 13.16060392493614"
      },
      "geometry": {
        "type": "Point",
        "coordinates": [
          176.5922047151092,
          57.394933070929454
        ]
      }
    }
  ]
}